[{"OBJECT_NAME":"STARLINK-1821","OBJECT_ID":"2020-073BA","EPOCH":"2026-03-09T17:31:05.033568","MEAN_MOTION":15.37970474,"ECCENTRICITY":0.00041483,"INCLINATION":53.0488,"RA_OF_ASC_NODE":226.3874,"ARG_OF_PERICENTER":156.9798,"MEAN_ANOMALY":203.1391,"EPHEMERIS_TYPE":0,"CLASSIFICATION_TYPE":"U","NORAD_CAT_ID":46718,"ELEMENT_SET_NO":999,"REV_AT_EPOCH":29735,"BSTAR":0.0021811338,"MEAN_MOTION_DOT":0.00083201,"MEAN_MOTION_DDOT":0},{"OBJECT_NAME":"KUIPER-00223","OBJECT_ID":"2026-030V","EPOCH":"2026-03-09T17:18:46.022400","MEAN_MOTION":15.34146211,"ECCENTRICITY":0.00128242,"INCLINATION":51.8827,"RA_OF_ASC_NODE":219.2782,"ARG_OF_PERICENTER":59.0052,"MEAN_ANOMALY":301.2192,"EPHEMERIS_TYPE":0,"CLASSIFICATION_TYPE":"U","NORAD_CAT_ID":67783,"ELEMENT_SET_NO":999,"REV_AT_EPOCH":509,"BSTAR":0.00090645373,"MEAN_MOTION_DOT":0.00030225,"MEAN_MOTION_DDOT":0}]
